{
    "links": {
        "self": "http://www.neowsapp.com/rest/v1/neo/3893746?api_key=iIulBulltgU6a56xZRHN4H3l9WmuAYTsLGpBGhQ2"
    },
    "id": "3893746",
    "neo_reference_id": "3893746",
    "name": "(2019 WY5)",
    "designation": "2019 WY5",
    "nasa_jpl_url": "http://ssd.jpl.nasa.gov/sbdb.cgi?sstr=3893746",
    "absolute_magnitude_h": 24.0,
    "estimated_diameter": {
        "kilometers": {
            "estimated_diameter_min": 0.0421264611,
            "estimated_diameter_max": 0.0941976306
        },
        "meters": {
            "estimated_diameter_min": 42.1264610556,
            "estimated_diameter_max": 94.1976305719
        },
        "miles": {
            "estimated_diameter_min": 0.0261761612,
            "estimated_diameter_max": 0.0585316759
        },
        "feet": {
            "estimated_diameter_min": 138.2101784897,
            "estimated_diameter_max": 309.0473542854
        }
    },
    "is_potentially_hazardous_asteroid": false,
    "close_approach_data": [
        {
            "close_approach_date": "2019-11-02",
            "close_approach_date_full": "2019-Nov-02 13:27",
            "epoch_date_close_approach": 1572701220000,
            "relative_velocity": {
                "kilometers_per_second": "14.6491467126",
                "kilometers_per_hour": "52736.9281652988",
                "miles_per_hour": "32768.6762813769"
            },
            "miss_distance": {
                "astronomical": "0.0508424882",
                "lunar": "19.7777279098",
                "kilometers": "7605927.940220134",
                "miles": "4726104.4696764892"
            },
            "orbiting_body": "Earth"
        }
    ],
    "orbital_data": {
        "orbit_id": "1",
        "orbit_determination_date": "2019-12-01 23:42:08",
        "first_observation_date": "2019-11-08",
        "last_observation_date": "2019-12-02",
        "data_arc_in_days": 24,
        "observations_used": 13,
        "orbit_uncertainty": "8",
        "minimum_orbit_intersection": ".0085278",
        "jupiter_tisserand_invariant": "3.290",
        "epoch_osculation": "2458808.5",
        "eccentricity": ".6539907848441975",
        "semi_major_axis": "2.271407866849272",
        "inclination": "1.717499976578593",
        "ascending_node_longitude": "261.3358633310702",
        "orbital_period": "1250.377399589323",
        "perihelion_distance": ".7859280533072321",
        "perihelion_argument": "81.20202765752056",
        "aphelion_distance": "3.756887680391312",
        "perihelion_time": "2458751.894990061681",
        "mean_anomaly": "16.29732238001724",
        "mean_motion": ".2879130733794766",
        "equinox": "J2000",
        "orbit_class": {
            "orbit_class_type": "APO",
            "orbit_class_description": "Near-Earth asteroid orbits which cross the Earth’s orbit similar to that of 1862 Apollo",
            "orbit_class_range": "a (semi-major axis) > 1.0 AU; q (perihelion) < 1.017 AU"
        }
    },
    "is_sentry_object": false
}